NORAD_CAT_ID,OBJECT_NAME,OBJECT_TYPE,EPOCH,MEAN_MOTION,ECCENTRICITY,INCLINATION,RA_OF_ASC_NODE,ARG_OF_PERICENTER,MEAN_ANOMALY,BSTAR,MEAN_MOTION_DOT,MEAN_MOTION_DDOT,TLE_LINE0,TLE_LINE1,TLE_LINE2,SEMIMAJOR_AXIS,PERIOD,APOGEE,PERIGEE,DECAYED
52280.0,STARLINK-3764,PAYLOAD,2023-11-18 03:34:55,15.08841526,0.0001598,53.2188,291.431,89.4729,270.6446,6.6668e-05,7.73e-06,0.0,0 STARLINK-3764,1 52280U 22041V   23322.14925861  .00000773  00000-0  66668-4 0  9997,2 52280  53.2188 291.4310 0001598  89.4729 270.6446 15.08841526 88395,6917.876,95.437,540.846,538.635,0.0
52280.0,STARLINK-3764,PAYLOAD,2023-11-18 05:10:18,15.08843868,0.0001516,53.218,291.1345,91.5783,268.5383,9.331e-05,1.198e-05,0.0,0 STARLINK-3764,1 52280U 22041V   23322.21549699  .00001198  00000-0  93310-4 0  9992,2 52280  53.2180 291.1345 0001516  91.5783 268.5383 15.08843868 87189,6917.869,95.437,540.782,538.685,0.0
52280.0,STARLINK-3764,PAYLOAD,2023-11-18 21:04:10,15.08834487,0.0001347,53.2183,288.1607,87.0809,273.0337,8.8471e-05,1.12e-05,0.0,0 STARLINK-3764,1 52280U 22041V   23322.87790378  .00001120  00000-0  88471-4 0  9993,2 52280  53.2183 288.1607 0001347  87.0809 273.0337 15.08834487 87288,6917.897,95.438,540.694,538.83,0.0
52280.0,STARLINK-3764,PAYLOAD,2023-11-19 03:25:43,15.08832605,0.0001503,53.2182,286.972,88.1261,271.9903,4.7216e-05,4.63e-06,0.0,0 STARLINK-3764,1 52280U 22041V   23323.14286671  .00000463  00000-0  47216-4 0  9991,2 52280  53.2182 286.9720 0001503  88.1261 271.9903 15.08832605 88543,6917.903,95.438,540.808,538.728,0.0
52280.0,STARLINK-3764,PAYLOAD,2023-11-19 14:33:25,15.08838262,0.0001483,53.2184,284.8902,87.9476,272.1686,8.9917e-05,1.143e-05,0.0,0 STARLINK-3764,1 52280U 22041V   23323.60654352  .00001143  00000-0  89917-4 0  9997,2 52280  53.2184 284.8902 0001483  87.9476 272.1686 15.08838262 87394,6917.886,95.438,540.777,538.725,0.0
52280.0,STARLINK-3764,PAYLOAD,2023-11-20 03:16:29,15.08847492,0.0001403,53.2176,282.5107,87.2794,272.8359,9.4762e-05,1.221e-05,0.0,0 STARLINK-3764,1 52280U 22041V   23324.13645645  .00001221  00000-0  94762-4 0  9992,2 52280  53.2176 282.5107 0001403  87.2794 272.8359 15.08847492 88698,6917.857,95.437,540.693,538.752,0.0
52280.0,STARLINK-3764,PAYLOAD,2023-11-20 08:02:38,15.08853421,0.000142,53.2175,281.6184,87.4551,272.6604,0.00014629,2.042e-05,0.0,0 STARLINK-3764,1 52280U 22041V   23324.33517137  .00002042  00000-0  14629-3 0  9993,2 52280  53.2175 281.6184 0001420  87.4551 272.6604 15.08853421 87503,6917.839,95.437,540.687,538.722,0.0
52280.0,STARLINK-3764,PAYLOAD,2023-11-21 03:07:17,15.08841867,0.0001655,53.2185,278.0477,97.9592,262.1588,7.985e-05,9.83e-06,0.0,0 STARLINK-3764,1 52280U 22041V   23325.13005925  .00000983  00000-0  79850-4 0  9999,2 52280  53.2185 278.0477 0001655  97.9592 262.1588 15.08841867 88844,6917.875,95.437,540.885,538.595,0.0
52280.0,STARLINK-3764,PAYLOAD,2023-11-21 06:18:03,15.08844727,0.0001614,53.2185,277.4527,97.5798,262.5377,9.5927e-05,1.239e-05,0.0,0 STARLINK-3764,1 52280U 22041V   23325.26253729  .00001239  00000-0  95927-4 0  9998,2 52280  53.2185 277.4527 0001614  97.5798 262.5377 15.08844727 87647,6917.866,95.437,540.847,538.614,0.0
52280.0,STARLINK-3764,PAYLOAD,2023-11-22 02:58:03,15.08850223,0.0001631,53.2185,273.5872,93.0252,267.0926,9.4076e-06,-1.38e-06,0.0,0 STARLINK-3764,1 52280U 22041V   23326.12365573 -.00000138  00000-0  94076-5 0  9998,2 52280  53.2185 273.5872 0001631  93.0252 267.0926 15.08850223 87774,6917.849,95.437,540.842,538.586,0.0
52280.0,STARLINK-3764,PAYLOAD,2023-11-23 02:48:50,15.08848314,0.0001739,53.2173,269.1276,83.2745,276.8445,0.00014037,1.947e-05,0.0,0 STARLINK-3764,1 52280U 22041V   23327.11725489  .00001947  00000-0  14037-3 0  9999,2 52280  53.2173 269.1276 0001739  83.2745 276.8445 15.08848314 89142,6917.855,95.437,540.923,538.517,0.0
52280.0,STARLINK-3764,PAYLOAD,2023-11-24 02:39:38,15.08833546,0.000174,53.2179,264.6705,111.7787,248.3391,-3.0236e-06,-3.36e-06,0.0,0 STARLINK-3764,1 52280U 22041V   23328.11086374 -.00000336  00000-0 -30236-5 0  9997,2 52280  53.2179 264.6705 0001740 111.7787 248.3391 15.08833546 89291,6917.9,95.438,540.969,538.561,0.0
52280.0,STARLINK-3764,PAYLOAD,2023-11-24 20:08:53,15.08833422,0.0001778,53.2179,261.3992,116.8312,243.2862,-1.9596e-05,-6e-06,0.0,0 STARLINK-3764,1 52280U 22041V   23328.83950780 -.00000600  00000-0 -19596-4 0  9996,2 52280  53.2179 261.3992 0001778 116.8312 243.2862 15.08833422 88181,6917.9,95.438,540.995,538.535,0.0
52280.0,STARLINK-3764,PAYLOAD,2023-11-25 02:30:25,15.08842123,0.0001854,53.2185,260.2139,116.1909,243.9274,9.3495e-05,1.2e-05,0.0,0 STARLINK-3764,1 52280U 22041V   23329.10446452  .00001200  00000-0  93495-4 0  9998,2 52280  53.2185 260.2139 0001854 116.1909 243.9274 15.08842123 88226,6917.874,95.437,541.021,538.456,0.0
52280.0,STARLINK-3764,PAYLOAD,2023-11-25 19:59:40,15.08845065,0.0001642,53.2183,256.9389,98.0262,262.0916,0.0003235,4.865e-05,0.0,0 STARLINK-3764,1 52280U 22041V   23329.83310497  .00004865  00000-0  32350-3 0  9999,2 52280  53.2183 256.9389 0001642  98.0262 262.0916 15.08845065 88333,6917.865,95.437,540.866,538.594,0.0
52280.0,STARLINK-3764,PAYLOAD,2023-11-26 00:45:49,15.08865892,0.000166,53.2185,256.0477,103.5309,256.5868,0.00068676,0.00010666,0.0,0 STARLINK-3764,1 52280U 22041V   23330.03181814  .00010666  00000-0  68676-3 0  9998,2 52280  53.2185 256.0477 0001660 103.5309 256.5868 15.08865892 89580,6917.801,95.436,540.815,538.518,0.0
52280.0,STARLINK-3764,PAYLOAD,2023-11-26 18:15:04,15.08838718,0.0001723,53.2181,252.7729,80.4104,279.7083,-4.6212e-05,-1.023e-05,0.0,0 STARLINK-3764,1 52280U 22041V   23330.76046665 -.00001023  00000-0 -46212-4 0  9994,2 52280  53.2181 252.7729 0001723  80.4104 279.7083 15.08838718 89690,6917.884,95.438,540.941,538.557,0.0
52280.0,STARLINK-3764,PAYLOAD,2023-11-27 03:47:24,15.08821409,0.0001454,53.2176,250.9849,85.6389,274.4769,-0.00024932,-4.252e-05,0.0,0 STARLINK-3764,1 52280U 22041V   23331.15791804 -.00004252  00000-0 -24932-3 0  9991,2 52280  53.2176 250.9849 0001454  85.6389 274.4769 15.08821409 89759,6917.937,95.439,540.808,538.796,0.0
52280.0,STARLINK-3764,PAYLOAD,2023-11-27 05:22:47,15.08819462,0.0001537,53.2182,250.6893,86.6167,273.5001,-0.00026819,-4.551e-05,0.0,0 STARLINK-3764,1 52280U 22041V   23331.22415980 -.00004551  00000-0 -26819-3 0  9995,2 52280  53.2182 250.6893 0001537  86.6167 273.5001 15.08819462 88540,6917.943,95.439,540.871,538.745,0.0
52280.0,STARLINK-3764,PAYLOAD,2023-11-28 02:02:46,15.0886253,0.0001769,53.2183,246.8272,70.9771,289.1412,0.00027045,4.021e-05,0.0,0 STARLINK-3764,1 52280U 22041V   23332.08525989  .00004021  00000-0  27045-3 0  9993,2 52280  53.2183 246.8272 0001769  70.9771 289.1412 15.08862530 89895,6917.812,95.436,540.9,538.453,0.0
52280.0,STARLINK-3764,PAYLOAD,2023-11-28 03:38:09,15.08864626,0.0001643,53.2181,246.5295,76.3705,283.747,0.00030441,4.563e-05,0.0,0 STARLINK-3764,1 52280U 22041V   23332.15149802  .00004563  00000-0  30441-3 0  9992,2 52280  53.2181 246.5295 0001643  76.3705 283.7470 15.08864626 88681,6917.805,95.436,540.807,538.534,0.0
52280.0,STARLINK-3764,PAYLOAD,2023-11-28 17:56:39,15.08830308,0.000163,53.218,243.8508,76.617,283.5004,0.00025284,3.737e-05,0.0,0 STARLINK-3764,1 52280U 22041V   23332.74768005  .00003737  00000-0  25284-3 0  9990,2 52280  53.2180 243.8508 0001630  76.6170 283.5004 15.08830308 89998,6917.91,95.438,540.903,538.647,0.0
52280.0,STARLINK-3764,PAYLOAD,2023-11-28 22:42:48,15.08838021,0.0001585,53.2181,242.9588,88.7777,271.3397,0.00030945,4.64e-05,0.0,0 STARLINK-3764,1 52280U 22041V   23332.94639614  .00004640  00000-0  30945-3 0  9999,2 52280  53.2181 242.9588 0001585  88.7777 271.3397 15.08838021 88802,6917.886,95.438,540.848,538.655,0.0
52280.0,STARLINK-3764,PAYLOAD,2023-11-29 03:28:57,15.08845588,0.0001557,53.2171,242.0673,77.3938,282.7228,0.00042637,6.505e-05,0.0,0 STARLINK-3764,1 52280U 22041V   23333.14511213  .00006505  00000-0  42637-3 0  9999,2 52280  53.2171 242.0673 0001557  77.3938 282.7228 15.08845588 90054,6917.863,95.437,540.805,538.651,0.0
52280.0,STARLINK-3764,PAYLOAD,2023-11-30 00:08:57,15.08875662,0.0001949,53.2172,238.2047,62.4469,297.6721,0.0005262,8.104e-05,0.0,0 STARLINK-3764,1 52280U 22041V   23334.00621578  .00008104  00000-0  52620-3 0  9991,2 52280  53.2172 238.2047 0001949  62.4469 297.6721 15.08875662 90189,6917.771,95.435,540.985,538.288,0.0
52280.0,STARLINK-3764,PAYLOAD,2023-11-30 23:59:45,15.08838259,0.0001429,53.2171,233.7427,108.8097,251.305,-5.4009e-05,-1.147e-05,0.0,0 STARLINK-3764,1 52280U 22041V   23334.99982764 -.00001147  00000-0 -54009-4 0  9992,2 52280  53.2171 233.7427 0001429 108.8097 251.3050 15.08838259 90335,6917.886,95.438,540.739,538.762,0.0
52280.0,STARLINK-3764,PAYLOAD,2023-12-01 22:15:08,15.08863077,0.0001932,53.2176,229.5764,73.568,286.5524,0.00013213,1.817e-05,0.0,0 STARLINK-3764,1 52280U 22041V   23335.92717845  .00001817  00000-0  13213-3 0  9995,2 52280  53.2176 229.5764 0001932  73.5680 286.5524 15.08863077 89253,6917.81,95.436,541.011,538.338,0.0
52280.0,STARLINK-3764,PAYLOAD,2023-12-01 23:50:31,15.08867995,0.0001766,53.2167,229.2781,74.002,286.1167,0.00020425,2.966e-05,0.0,0 STARLINK-3764,1 52280U 22041V   23335.99341543  .00002966  00000-0  20425-3 0  9999,2 52280  53.2167 229.2781 0001766  74.0020 286.1167 15.08867995 90487,6917.795,95.436,540.882,538.438,0.0
52280.0,STARLINK-3764,PAYLOAD,2023-12-02 03:01:17,15.08868811,0.0001924,53.2171,228.681,67.1379,292.9816,0.00023055,3.386e-05,0.0,0 STARLINK-3764,1 52280U 22041V   23336.12589477  .00003386  00000-0  23055-3 0  9994,2 52280  53.2171 228.6810 0001924  67.1379 292.9816 15.08868811 89284,6917.792,95.436,540.988,538.326,0.0
52280.0,STARLINK-3764,PAYLOAD,2023-12-02 22:05:56,15.08835587,0.0001548,53.216,225.1176,98.9631,261.1536,0.00011974,1.618e-05,0.0,0 STARLINK-3764,1 52280U 22041V   23336.92079189  .00001618  00000-0  11974-3 0  9999,2 52280  53.2160 225.1176 0001548  98.9631 261.1536 15.08835587 89409,6917.894,95.438,540.83,538.688,0.0
